ONEWEB-0387             
1 49313U 21090AL  25182.83996511  .00000054  00000+0  10146-3 0  9995
2 49313  87.9253 344.2649 0001530  89.5444 270.5864 13.20773397183579
ONEWEB-0388             
1 49314U 21090AM  25183.58915965  .00000012  00000+0 -31428-5 0  9996
2 49314  87.9215  14.4790 0001736  92.0339 268.0992 13.19725064180309
ONEWEB-0389             
1 50469U 21132A   25183.43670668  .00000001  00000+0 -30102-4 0  9993
2 50469  87.9060  75.4984 0001452  71.4066 288.7223 13.17651069172022
ONEWEB-0390             
1 50470U 21132B   25183.43840462  .00000046  00000+0  85190-4 0  9991
2 50470  87.9060  75.5048 0001998  71.7091 288.4258 13.17651417172024
ONEWEB-0391             
1 50471U 21132C   25183.59195774  .00000016  00000+0  74673-5 0  9990
2 50471  87.9067  75.4883 0001417  51.6288 308.4971 13.17647947172049
ONEWEB-0392             
1 50472U 21132D   25183.62232937  .00000003  00000+0 -24619-4 0  9999
2 50472  87.9057  75.4283 0001535  69.7792 290.3504 13.17648006172086
ONEWEB-0393             
1 50473U 21132E   25183.59547131 -.00000026  00000+0 -99595-4 0  9992
2 50473  87.9066  75.4483 0001711  74.5015 285.6305 13.17647323172073
ONEWEB-0394             
1 50474U 21132F   25182.85191759  .00000098  00000+0  21632-3 0  9995
2 50474  87.9134  45.0501 0001658  83.9053 276.2268 13.18689189175423
